{
  "type": "FeatureCollection",
  "features": [
    {
      "type": "Feature",
      "properties": {
        "norad_id": 66525,
        "name": "STARLINK-35975",
        "group": "last-30-days",
        "lat": -34.98779920382066,
        "lon": 2.8893616381150906,
        "alt_km": 430.00295657414426,
        "timestamp": "2025-12-13T03:42:10.036447+00:00",
        "meta_object_name": "STARLINK-35975",
        "meta_object_id": "2025-265K",
        "meta_epoch": "2025-12-12T06:00:00.999648",
        "meta_mean_motion": 15.50387618,
        "meta_eccentricity": 0.00013819,
        "meta_inclination": 43.0003,
        "meta_ra_of_asc_node": 56.8427,
        "meta_arg_of_pericenter": 267.6679,
        "meta_mean_anomaly": 29.2051,
        "meta_ephemeris_type": 0,
        "meta_classification_type": "U",
        "meta_norad_cat_id": 66525,
        "meta_element_set_no": 999,
        "meta_rev_at_epoch": 491,
        "meta_bstar": -0.044319454,
        "meta_mean_motion_dot": -0.02269434,
        "meta_mean_motion_ddot": 0,
        "tle_line1": "1 66525U 25265K   25346.25001157 -.02269434  00000+0 -44319-1 0  9998",
        "tle_line2": "2 66525  43.0003  56.8427 0001381 267.6679  29.2051 15.50387618  4911"
      },
      "geometry": {
        "type": "Point",
        "coordinates": [
          2.8893616381150906,
          -34.98779920382066
        ]
      }
    },
    {
      "type": "Feature",
      "properties": {
        "norad_id": 66526,
        "name": "STARLINK-35932",
        "group": "last-30-days",
        "lat": -30.067044709860784,
        "lon": 13.138162415915486,
        "alt_km": 417.287811467696,
        "timestamp": "2025-12-13T03:42:10.036457+00:00",
        "meta_object_name": "STARLINK-35932",
        "meta_object_id": "2025-265L",
        "meta_epoch": "2025-12-12T06:00:00.999648",
        "meta_mean_motion": 15.50519619,
        "meta_eccentricity": 0.00017156,
        "meta_inclination": 43.0004,
        "meta_ra_of_asc_node": 56.8358,
        "meta_arg_of_pericenter": 222.4237,
        "meta_mean_anomaly": 76.4649,
        "meta_ephemeris_type": 0,
        "meta_classification_type": "U",
        "meta_norad_cat_id": 66526,
        "meta_element_set_no": 999,
        "meta_rev_at_epoch": 480,
        "meta_bstar": 0.0016210036,
        "meta_mean_motion_dot": 0.00095723,
        "meta_mean_motion_ddot": 0,
        "tle_line1": "1 66526U 25265L   25346.25001157  .00095723  00000+0  16210-2 0  9993",
        "tle_line2": "2 66526  43.0004  56.8358 0001715 222.4237  76.4649 15.50519619  4809"
      },
      "geometry": {
        "type": "Point",
        "coordinates": [
          13.138162415915486,
          -30.067044709860784
        ]
      }
    },
    {
      "type": "Feature",
      "properties": {
        "norad_id": 66527,
        "name": "STARLINK-35935",
        "group": "last-30-days",
        "lat": -29.052008627234173,
        "lon": 14.950583396022381,
        "alt_km": 417.1372809382965,
        "timestamp": "2025-12-13T03:42:10.036467+00:00",
        "meta_object_name": "STARLINK-35935",
        "meta_object_id": "2025-265M",
        "meta_epoch": "2025-12-12T06:00:00.999648",
        "meta_mean_motion": 15.50542754,
        "meta_eccentricity": 0.00012263,
        "meta_inclination": 43.0004,
        "meta_ra_of_asc_node": 56.8332,
        "meta_arg_of_pericenter": 253.0589,
        "meta_mean_anomaly": 47.8231,
        "meta_ephemeris_type": 0,
        "meta_classification_type": "U",
        "meta_norad_cat_id": 66527,
        "meta_element_set_no": 999,
        "meta_rev_at_epoch": 491,
        "meta_bstar": 0.00056717497,
        "meta_mean_motion_dot": 0.00033029,
        "meta_mean_motion_ddot": 0,
        "tle_line1": "1 66527U 25265M   25346.25001157  .00033029  00000+0  56717-3 0  9992",
        "tle_line2": "2 66527  43.0004  56.8332 0001226 253.0589  47.8231 15.50542754  4916"
      },
      "geometry": {
        "type": "Point",
        "coordinates": [
          14.950583396022381,
          -29.052008627234173
        ]
      }
    },
    {
      "type": "Feature",
      "properties": {
        "norad_id": 66528,
        "name": "STARLINK-35928",
        "group": "last-30-days",
        "lat": -27.97307998302815,
        "lon": 16.791625372985276,
        "alt_km": 416.7500144320911,
        "timestamp": "2025-12-13T03:42:10.036477+00:00",
        "meta_object_name": "STARLINK-35928",
        "meta_object_id": "2025-265N",
        "meta_epoch": "2025-12-12T06:00:00.999648",
        "meta_mean_motion": 15.50544041,
        "meta_eccentricity": 0.0001549,
        "meta_inclination": 43.0005,
        "meta_ra_of_asc_node": 56.8282,
        "meta_arg_of_pericenter": 265.6489,
        "meta_mean_anomaly": 37.156,
        "meta_ephemeris_type": 0,
        "meta_classification_type": "U",
        "meta_norad_cat_id": 66528,
        "meta_element_set_no": 999,
        "meta_rev_at_epoch": 491,
        "meta_bstar": 0.00069536027,
        "meta_mean_motion_dot": 0.00040613,
        "meta_mean_motion_ddot": 0,
        "tle_line1": "1 66528U 25265N   25346.25001157  .00040613  00000+0  69536-3 0  9993",
        "tle_line2": "2 66528  43.0005  56.8282 0001549 265.6489  37.1560 15.50544041  4916"
      },
      "geometry": {
        "type": "Point",
        "coordinates": [
          16.791625372985276,
          -27.97307998302815
        ]
      }
    },
    {
      "type": "Feature",
      "properties": {
        "norad_id": 66529,
        "name": "STARLINK-35933",
        "group": "last-30-days",
        "lat": -42.54541463662682,
        "lon": -28.38867374610826,
        "alt_km": 446.599874699702,
        "timestamp": "2025-12-13T03:42:10.036487+00:00",
        "meta_object_name": "STARLINK-35933",
        "meta_object_id": "2025-265P",
        "meta_epoch": "2025-12-12T06:00:00.999648",
        "meta_mean_motion": 15.44496708,
        "meta_eccentricity": 0.0001166,
        "meta_inclination": 43.0009,
        "meta_ra_of_asc_node": 56.8598,
        "meta_arg_of_pericenter": 258.5817,
        "meta_mean_anomaly": 31.3591,
        "meta_ephemeris_type": 0,
        "meta_classification_type": "U",
        "meta_norad_cat_id": 66529,
        "meta_element_set_no": 999,
        "meta_rev_at_epoch": 491,
        "meta_bstar": -0.048652242,
        "meta_mean_motion_dot": -0.02052192,
        "meta_mean_motion_ddot": 0,
        "tle_line1": "1 66529U 25265P   25346.25001157 -.02052192  00000+0 -48652-1 0  9997",
        "tle_line2": "2 66529  43.0009  56.8598 0001166 258.5817  31.3591 15.44496708  4911"
      },
      "geometry": {
        "type": "Point",
        "coordinates": [
          -28.38867374610826,
          -42.54541463662682
        ]
      }
    },
    {
      "type": "Feature",
      "properties": {
        "norad_id": 66530,
        "name": "STARLINK-35961",
        "group": "last-30-days",
        "lat": -36.424693626325805,
        "lon": -0.7820494399051184,
        "alt_km": 437.7595134681487,
        "timestamp": "2025-12-13T03:42:10.036497+00:00",
        "meta_object_name": "STARLINK-35961",
        "meta_object_id": "2025-265Q",
        "meta_epoch": "2025-12-12T06:00:00.999648",
        "meta_mean_motion": 15.47417379,
        "meta_eccentricity": 0.00014429,
        "meta_inclination": 43.0005,
        "meta_ra_of_asc_node": 56.8281,
        "meta_arg_of_pericenter": 265.849,
        "meta_mean_anomaly": 36.7747,
        "meta_ephemeris_type": 0,
        "meta_classification_type": "U",
        "meta_norad_cat_id": 66530,
        "meta_element_set_no": 999,
        "meta_rev_at_epoch": 491,
        "meta_bstar": -0.044689665,
        "meta_mean_motion_dot": -0.02082834,
        "meta_mean_motion_ddot": 0,
        "tle_line1": "1 66530U 25265Q   25346.25001157 -.02082834  00000+0 -44690-1 0  9993",
        "tle_line2": "2 66530  43.0005  56.8281 0001442 265.8490  36.7747 15.47417379  4915"
      },
      "geometry": {
        "type": "Point",
        "coordinates": [
          -0.7820494399051184,
          -36.424693626325805
        ]
      }
    },
    {
      "type": "Feature",
      "properties": {
        "norad_id": 66531,
        "name": "STARLINK-35960",
        "group": "last-30-days",
        "lat": -28.915479537810405,
        "lon": 15.187689289085217,
        "alt_km": 429.28940681800304,
        "timestamp": "2025-12-13T03:42:10.036511+00:00",
        "meta_object_name": "STARLINK-35960",
        "meta_object_id": "2025-265R",
        "meta_epoch": "2025-12-12T06:00:00.999648",
        "meta_mean_motion": 15.50353883,
        "meta_eccentricity": 0.00011333,
        "meta_inclination": 43.0005,
        "meta_ra_of_asc_node": 56.8131,
        "meta_arg_of_pericenter": 260.2889,
        "meta_mean_anomaly": 48.2253,
        "meta_ephemeris_type": 0,
        "meta_classification_type": "U",
        "meta_norad_cat_id": 66531,
        "meta_element_set_no": 999,
        "meta_rev_at_epoch": 491,
        "meta_bstar": -0.040769142,
        "meta_mean_motion_dot": -0.02105832,
        "meta_mean_motion_ddot": 0,
        "tle_line1": "1 66531U 25265R   25346.25001157 -.02105832  00000+0 -40769-1 0  9991",
        "tle_line2": "2 66531  43.0005  56.8131 0001133 260.2889  48.2253 15.50353883  4911"
      },
      "geometry": {
        "type": "Point",
        "coordinates": [
          15.187689289085217,
          -28.915479537810405
        ]
      }
    }
  ]
}